{"type": "FeatureCollection", "features": [ {"type": "Feature", "properties": {"norad_id": 33492, "name": "GOSAT (IBUKI)", "group": "resource", "lat": 73.10675889916605, "lon": 70.62753933179046, "alt_km": 661.2017342831823, "timestamp": "2025-12-15T22:44:28.580105+00:00", "meta": {"OBJECT_NAME": "GOSAT (IBUKI)", "OBJECT_ID": "2009-002A", "EPOCH": "2025-12-15T06:02:12.547104", "MEAN_MOTION": 14.6755993, "ECCENTRICITY": 9.659e-05, "INCLINATION": 98.0771, "RA_OF_ASC_NODE": 97.82, "ARG_OF_PERICENTER": 95.5055, "MEAN_ANOMALY": 264.6259, "EPHEMERIS_TYPE": 0, "CLASSIFICATION_TYPE": "U", "NORAD_CAT_ID": 33492, "ELEMENT_SET_NO": 999, "REV_AT_EPOCH": 90448, "BSTAR": 0.00017263665, "MEAN_MOTION_DOT": 9.31e-06, "MEAN_MOTION_DDOT": 0}, "tle": {"line1": "1 33492U 09002A   25349.25153411  .00000931  00000+0  17264-3 0  9992", "line2": "2 33492  98.0771  97.8200 0000965  95.5055 264.6259 14.67559930904488"}}, "geometry": {"type": "Point", "coordinates": [70.62753933179046, 73.10675889916605]}}, {"type": "Feature", "properties": {"norad_id": 35681, "name": "DEIMOS-1", "group": "resource", "lat": -57.384953584350995, "lon": -41.82961935754977, "alt_km": 654.2102986289228, "timestamp": "2025-12-15T22:44:28.580116+00:00", "meta": {"OBJECT_NAME": "DEIMOS-1", "OBJECT_ID": "2009-041A", "EPOCH": "2025-12-15T08:38:22.964928", "MEAN_MOTION": 14.74959069, "ECCENTRICITY": 0.00027039, "INCLINATION": 97.7148, "RA_OF_ASC_NODE": 149.8409, "ARG_OF_PERICENTER": 75.5264, "MEAN_ANOMALY": 284.6246, "EPHEMERIS_TYPE": 0, "CLASSIFICATION_TYPE": "U", "NORAD_CAT_ID": 35681, "ELEMENT_SET_NO": 999, "REV_AT_EPOCH": 87978, "BSTAR": 0.00017355814, "MEAN_MOTION_DOT": 1.119e-05, "MEAN_MOTION_DDOT": 0}, "tle": {"line1": "1 35681U 09041A   25349.35998802  .00001119  00000+0  17356-3 0  9990", "line2": "2 35681  97.7148 149.8409 0002703  75.5264 284.6246 14.74959069879782"}}, "geometry": {"type": "Point", "coordinates": [-41.82961935754977, -57.384953584350995]}}, {"type": "Feature", "properties": {"norad_id": 35682, "name": "DUBAISAT-1", "group": "resource", "lat": 10.785164286488452, "lon": -57.88903359534319, "alt_km": 652.5307832950066, "timestamp": "2025-12-15T22:44:28.580128+00:00", "meta": {"OBJECT_NAME": "DUBAISAT-1", "OBJECT_ID": "2009-041B", "EPOCH": "2025-12-15T08:56:54.062016", "MEAN_MOTION": 14.74611384, "ECCENTRICITY": 0.00094508, "INCLINATION": 97.9792, "RA_OF_ASC_NODE": 120.0138, "ARG_OF_PERICENTER": 305.3127, "MEAN_ANOMALY": 54.7197, "EPHEMERIS_TYPE": 0, "CLASSIFICATION_TYPE": "U", "NORAD_CAT_ID": 35682, "ELEMENT_SET_NO": 999, "REV_AT_EPOCH": 87800, "BSTAR": 0.00021503008, "MEAN_MOTION_DOT": 1.384e-05, "MEAN_MOTION_DDOT": 0}, "tle": {"line1": "1 35682U 09041B   25349.37284794  .00001384  00000+0  21503-3 0  9994", "line2": "2 35682  97.9792 120.0138 0009450 305.3127  54.7197 14.74611384878008"}}, "geometry": {"type": "Point", "coordinates": [-57.88903359534319, 10.785164286488452]}}, {"type": "Feature", "properties": {"norad_id": 35931, "name": "OCEANSAT-2", "group": "resource", "lat": -21.839108620453295, "lon": 166.90100408685063, "alt_km": 911.7335963874348, "timestamp": "2025-12-15T22:44:28.580140+00:00", "meta": {"OBJECT_NAME": "OCEANSAT-2", "OBJECT_ID": "2009-051A", "EPOCH": "2025-12-15T08:03:15.814944", "MEAN_MOTION": 13.99624094, "ECCENTRICITY": 0.00161502, "INCLINATION": 98.2221, "RA_OF_ASC_NODE": 349.673, "ARG_OF_PERICENTER": 38.2695, "MEAN_ANOMALY": 321.9615, "EPHEMERIS_TYPE": 0, "CLASSIFICATION_TYPE": "U", "NORAD_CAT_ID": 35931, "ELEMENT_SET_NO": 999, "REV_AT_EPOCH": 85361, "BSTAR": -6.5250078e-05, "MEAN_MOTION_DOT": -1.33e-06, "MEAN_MOTION_DDOT": 0}, "tle": {"line1": "1 35931U 09051A   25349.33559971 -.00000133  00000+0 -65250-4 0  9991", "line2": "2 35931  98.2221 349.6730 0016150  38.2695 321.9615 13.99624094853612"}}, "geometry": {"type": "Point", "coordinates": [166.90100408685063, -21.839108620453295]}}, {"type": "Feature", "properties": {"norad_id": 35946, "name": "WORLDVIEW-2 (WV-2)", "group": "resource", "lat": 41.9770379574092, "lon": 53.275303489530735, "alt_km": 759.1585178843625, "timestamp": "2025-12-15T22:44:28.580151+00:00", "meta": {"OBJECT_NAME": "WORLDVIEW-2 (WV-2)", "OBJECT_ID": "2009-055A", "EPOCH": "2025-12-15T07:30:42.403392", "MEAN_MOTION": 14.37725033, "ECCENTRICITY": 0.00051025, "INCLINATION": 98.4787, "RA_OF_ASC_NODE": 60.362, "ARG_OF_PERICENTER": 64.2768, "MEAN_ANOMALY": 295.8945, "EPHEMERIS_TYPE": 0, "CLASSIFICATION_TYPE": "U", "NORAD_CAT_ID": 35946, "ELEMENT_SET_NO": 999, "REV_AT_EPOCH": 84922, "BSTAR": 7.1382823e-05, "MEAN_MOTION_DOT": 1.71e-06, "MEAN_MOTION_DDOT": 0}, "tle": {"line1": "1 35946U 09055A   25349.31299078  .00000171  00000+0  71383-4 0  9992", "line2": "2 35946  98.4787  60.3620 0005102  64.2768 295.8945 14.37725033849222"}}, "geometry": {"type": "Point", "coordinates": [53.275303489530735, 41.9770379574092]}}, {"type": "Feature", "properties": {"norad_id": 36036, "name": "SMOS", "group": "resource", "lat": 75.84154083723692, "lon": 30.993737589059933, "alt_km": 751.4022239948736, "timestamp": "2025-12-15T22:44:28.580162+00:00", "meta": {"OBJECT_NAME": "SMOS", "OBJECT_ID": "2009-059A", "EPOCH": "2025-12-15T08:55:43.466304", "MEAN_MOTION": 14.39743413, "ECCENTRICITY": 0.00011, "INCLINATION": 98.438, "RA_OF_ASC_NODE": 174.3815, "ARG_OF_PERICENTER": 84.0454, "MEAN_ANOMALY": 276.086, "EPHEMERIS_TYPE": 0, "CLASSIFICATION_TYPE": "U", "NORAD_CAT_ID": 36036, "ELEMENT_SET_NO": 999, "REV_AT_EPOCH": 84700, "BSTAR": 0.00013860671, "MEAN_MOTION_DOT": 3.91e-06, "MEAN_MOTION_DDOT": 0}, "tle": {"line1": "1 36036U 09059A   25349.37203086  .00000391  00000+0  13861-3 0  9997", "line2": "2 36036  98.4380 174.3815 0001100  84.0454 276.0860 14.39743413847005"}}, "geometry": {"type": "Point", "coordinates": [30.993737589059933, 75.84154083723692]}}, {"type": "Feature", "properties": {"norad_id": 36110, "name": "YAOGAN-7", "group": "resource", "lat": 4.460052874565362, "lon": -128.93805980664052, "alt_km": 640.0327014452296, "timestamp": "2025-12-15T22:44:28.580173+00:00", "meta": {"OBJECT_NAME": "YAOGAN-7", "OBJECT_ID": "2009-069A", "EPOCH": "2025-12-15T06:28:12.169920", "MEAN_MOTION": 14.77736151, "ECCENTRICITY": 0.00233392, "INCLINATION": 98.0298, "RA_OF_ASC_NODE": 231.0175, "ARG_OF_PERICENTER": 272.6712, "MEAN_ANOMALY": 87.1826, "EPHEMERIS_TYPE": 0, "CLASSIFICATION_TYPE": "U", "NORAD_CAT_ID": 36110, "ELEMENT_SET_NO": 999, "REV_AT_EPOCH": 86246, "BSTAR": 0.00010088291, "MEAN_MOTION_DOT": 6.73e-06, "MEAN_MOTION_DDOT": 0}, "tle": {"line1": "1 36110U 09069A   25349.26958530  .00000673  00000+0  10088-3 0  9991", "line2": "2 36110  98.0298 231.0175 0023339 272.6712  87.1826 14.77736151862465"}}, "geometry": {"type": "Point", "coordinates": [-128.93805980664052, 4.460052874565362]}}, {"type": "Feature", "properties": {"norad_id": 36605, "name": "TANDEM-X", "group": "resource", "lat": 7.316303966672909, "lon": -5.679635606699969, "alt_km": 510.03359768676273, "timestamp": "2025-12-15T22:44:28.580183+00:00", "meta": {"OBJECT_NAME": "TANDEM-X", "OBJECT_ID": "2010-030A", "EPOCH": "2025-12-14T15:05:32.230464", "MEAN_MOTION": 15.19156095, "ECCENTRICITY": 0.00019257, "INCLINATION": 97.4454, "RA_OF_ASC_NODE": 353.9828, "ARG_OF_PERICENTER": 83.4847, "MEAN_ANOMALY": 276.6607, "EPHEMERIS_TYPE": 0, "CLASSIFICATION_TYPE": "U", "NORAD_CAT_ID": 36605, "ELEMENT_SET_NO": 999, "REV_AT_EPOCH": 85862, "BSTAR": 9.6223592e-05, "MEAN_MOTION_DOT": 1.954e-05, "MEAN_MOTION_DDOT": 0}, "tle": {"line1": "1 36605U 10030A   25348.62884526  .00001954  00000+0  96224-4 0  9992", "line2": "2 36605  97.4454 353.9828 0001925  83.4847 276.6607 15.19156095858629"}}, "geometry": {"type": "Point", "coordinates": [-5.679635606699969, 7.316303966672909]}}, {"type": "Feature", "properties": {"norad_id": 36795, "name": "CARTOSAT-2B", "group": "resource", "lat": -56.23919486027798, "lon": 50.684518343251945, "alt_km": 645.4651908397127, "timestamp": "2025-12-15T22:44:28.580194+00:00", "meta": {"OBJECT_NAME": "CARTOSAT-2B", "OBJECT_ID": "2010-035A", "EPOCH": "2025-12-15T08:22:58.257696", "MEAN_MOTION": 14.78728678, "ECCENTRICITY": 0.00130093, "INCLINATION": 97.7856, "RA_OF_ASC_NODE": 38.2949, "ARG_OF_PERICENTER": 68.6384, "MEAN_ANOMALY": 291.6214, "EPHEMERIS_TYPE": 0, "CLASSIFICATION_TYPE": "U", "NORAD_CAT_ID": 36795, "ELEMENT_SET_NO": 999, "REV_AT_EPOCH": 83268, "BSTAR": 0.00010491789, "MEAN_MOTION_DOT": 7.21e-06, "MEAN_MOTION_DDOT": 0}, "tle": {"line1": "1 36795U 10035A   25349.34928539  .00000721  00000+0  10492-3 0  9993", "line2": "2 36795  97.7856  38.2949 0013009  68.6384 291.6214 14.78728678832687"}}, "geometry": {"type": "Point", "coordinates": [50.684518343251945, -56.23919486027798]}}, {"type": "Feature", "properties": {"norad_id": 36834, "name": "YAOGAN-10", "group": "resource", "lat": 81.98088517170055, "lon": -89.33654653290722, "alt_km": 606.3754735912071, "timestamp": "2025-12-15T22:44:28.580205+00:00", "meta": {"OBJECT_NAME": "YAOGAN-10", "OBJECT_ID": "2010-038A", "EPOCH": "2025-12-15T07:50:14.730432", "MEAN_MOTION": 14.84619138, "ECCENTRICITY": 0.00013749, "INCLINATION": 97.9146, "RA_OF_ASC_NODE": 9.1283, "ARG_OF_PERICENTER": 79.6895, "MEAN_ANOMALY": 294.6116, "EPHEMERIS_TYPE": 0, "CLASSIFICATION_TYPE": "U", "NORAD_CAT_ID": 36834, "ELEMENT_SET_NO": 999, "REV_AT_EPOCH": 82992, "BSTAR": 0.000234582, "MEAN_MOTION_DOT": 1.928e-05, "MEAN_MOTION_DDOT": 0}, "tle": {"line1": "1 36834U 10038A   25349.32655938  .00001928  00000+0  23458-3 0  9994", "line2": "2 36834  97.9146   9.1283 0001374  79.6895 294.6116 14.84619138829928"}}, "geometry": {"type": "Point", "coordinates": [-89.33654653290722, 81.98088517170055]}}]}